NORAD_CAT_ID,OBJECT_NAME,OBJECT_TYPE,EPOCH,MEAN_MOTION,ECCENTRICITY,INCLINATION,RA_OF_ASC_NODE,ARG_OF_PERICENTER,MEAN_ANOMALY,BSTAR,MEAN_MOTION_DOT,MEAN_MOTION_DDOT,TLE_LINE0,TLE_LINE1,TLE_LINE2,SEMIMAJOR_AXIS,PERIOD,APOGEE,PERIGEE,DECAYED
54178.0,STARLINK-5164,PAYLOAD,2023-07-12 13:37:23,15.08835715,0.000135,53.2171,43.4569,88.0573,272.0574,7.2407e-05,8.65e-06,0.0,0 STARLINK-5164,1 54178U 22141X   23193.56763404  .00000865  00000-0  72407-4 0  9991,2 54178  53.2171  43.4569 0001350  88.0573 272.0574 15.08835715 39256,6917.893,95.438,540.692,538.825,0.0
54178.0,STARLINK-5164,PAYLOAD,2023-07-13 21:25:06,15.08842291,0.0001175,53.2163,37.5109,93.6981,266.4146,-2.0743e-05,-6.18e-06,0.0,0 STARLINK-5164,1 54178U 22141X   23194.89243413 -.00000618  00000-0 -20743-4 0  9995,2 54178  53.2163  37.5109 0001175  93.6981 266.4146 15.08842291 39452,6917.873,95.437,540.551,538.926,0.0
54178.0,STARLINK-5164,PAYLOAD,2023-07-14 19:40:29,15.08848091,0.0001229,53.2165,33.3475,90.9001,269.2132,0.00011898,1.607e-05,0.0,0 STARLINK-5164,1 54178U 22141X   23195.81978720  .00001607  00000-0  11898-3 0  9991,2 54178  53.2165  33.3475 0001229  90.9001 269.2132 15.08848091 39592,6917.856,95.437,540.571,538.87,0.0
54178.0,STARLINK-5164,PAYLOAD,2023-07-15 06:48:11,15.08840719,0.0001232,53.2169,31.2661,95.0187,265.0946,0.0002082,3.027e-05,0.0,0 STARLINK-5164,1 54178U 22141X   23196.28346940  .00003027  00000-0  20820-3 0  9999,2 54178  53.2169  31.2661 0001232  95.0187 265.0946 15.08840719 39669,6917.878,95.438,540.595,538.891,0.0
54178.0,STARLINK-5164,PAYLOAD,2023-07-16 19:22:04,15.08842721,0.0001226,53.2188,24.4314,90.1178,269.9954,-8.1234e-05,-1.581e-05,0.0,0 STARLINK-5164,1 54178U 22141X   23197.80699815 -.00001581  00000-0 -81234-4 0  9992,2 54178  53.2188  24.4314 0001226  90.1178 269.9954 15.08842721 39890,6917.872,95.437,540.585,538.889,0.0
54178.0,STARLINK-5164,PAYLOAD,2023-07-17 22:23:37,15.08852051,0.0001089,53.218,19.3719,87.712,272.3997,0.00017262,2.461e-05,0.0,0 STARLINK-5164,1 54178U 22141X   23198.93306718  .00002461  00000-0  17262-3 0  9999,2 54178  53.2180  19.3719 0001089  87.7120 272.3997 15.08852051 40063,6917.844,95.437,540.462,538.955,0.0
54178.0,STARLINK-5164,PAYLOAD,2023-07-18 22:14:24,15.08845137,0.0001152,53.2176,14.9098,94.8047,265.3077,0.00013221,1.817e-05,0.0,0 STARLINK-5164,1 54178U 22141X   23199.92667373  .00001817  00000-0  13221-3 0  9991,2 54178  53.2176  14.9098 0001152  94.8047 265.3077 15.08845137 40212,6917.865,95.437,540.527,538.933,0.0
54178.0,STARLINK-5164,PAYLOAD,2023-07-19 17:19:02,15.08836022,0.0001697,53.2175,11.3409,145.6089,214.5014,-0.00015378,-2.734e-05,0.0,0 STARLINK-5164,1 54178U 22141X   23200.72155690 -.00002734  00000-0 -15378-3 0  9992,2 54178  53.2175  11.3409 0001697 145.6089 214.5014 15.08836022 40336,6917.893,95.438,540.932,538.584,0.0
54178.0,STARLINK-5164,PAYLOAD,2023-07-20 18:45:12,15.0885101,0.0001067,53.2182,6.5829,92.1092,268.0022,0.00022836,3.349e-05,0.0,0 STARLINK-5164,1 54178U 22141X   23201.78139668  .00003349  00000-0  22836-3 0  9994,2 54178  53.2182   6.5829 0001067  92.1092 268.0022 15.08851010 40491,6917.847,95.437,540.45,538.974,0.0
54178.0,STARLINK-5164,PAYLOAD,2023-07-21 10:39:04,15.08842562,9.41e-05,53.2165,3.6126,96.5437,263.5662,0.00025974,3.849e-05,0.0,0 STARLINK-5164,1 54178U 22141X   23202.44380109  .00003849  00000-0  25974-3 0  9997,2 54178  53.2165   3.6126 0000941  96.5437 263.5662 15.08842562 40594,6917.873,95.437,540.389,539.087,0.0
54178.0,STARLINK-5164,PAYLOAD,2023-07-24 08:36:02,15.08838859,0.0001156,53.2189,350.5297,82.3431,277.7692,9.8538e-05,1.281e-05,0.0,0 STARLINK-5164,1 54178U 22141X   23205.35836199  .00001281  00000-0  98538-4 0  9990,2 54178  53.2189 350.5297 0001156  82.3431 277.7692 15.08838859 41033,6917.884,95.438,540.549,538.949,0.0
54178.0,STARLINK-5164,PAYLOAD,2023-07-25 10:02:12,15.08838431,0.0002539,53.2158,345.767,117.1484,242.9767,8.1295e-05,1.006e-05,0.0,0 STARLINK-5164,1 54178U 22141X   23206.41820274  .00001006  00000-0  81295-4 0  9992,2 54178  53.2158 345.7670 0002539 117.1484 242.9767 15.08838431 41191,6917.885,95.438,541.507,537.994,0.0
54178.0,STARLINK-5164,PAYLOAD,2023-07-26 09:53:00,15.08833651,0.0001437,53.2193,341.313,73.4362,286.6788,2.6741e-05,1.38e-06,0.0,0 STARLINK-5164,1 54178U 22141X   23207.41181120  .00000138  00000-0  26741-4 0  9993,2 54178  53.2193 341.3130 0001437  73.4362 286.6788 15.08833651 41342,6917.9,95.438,540.759,538.771,0.0
54178.0,STARLINK-5164,PAYLOAD,2023-07-27 01:46:50,15.08841223,0.0001081,53.2197,338.338,89.111,271.0006,0.00018603,2.674e-05,0.0,0 STARLINK-5164,1 54178U 22141X   23208.07420037  .00002674  00000-0  18603-3 0  9993,2 54178  53.2197 338.3380 0001081  89.1110 271.0006 15.08841223 41445,6917.877,95.437,540.489,538.994,0.0
54178.0,STARLINK-5164,PAYLOAD,2023-07-27 08:08:23,15.08835666,0.000109,53.2196,337.1495,79.6292,280.4823,0.00014226,1.977e-05,0.0,0 STARLINK-5164,1 54178U 22141X   23208.33916581  .00001977  00000-0  14226-3 0  9998,2 54178  53.2196 337.1495 0001090  79.6292 280.4823 15.08835666 41482,6917.894,95.438,540.513,539.005,0.0
54178.0,STARLINK-5164,PAYLOAD,2023-07-28 09:34:34,15.08832862,0.0001206,53.2169,332.3894,82.514,277.5989,3.4423e-05,2.6e-06,0.0,0 STARLINK-5164,1 54178U 22141X   23209.39901364  .00000260  00000-0  34423-4 0  9994,2 54178  53.2169 332.3894 0001206  82.5140 277.5989 15.08832862 41649,6917.902,95.438,540.602,538.933,0.0
54178.0,STARLINK-5164,PAYLOAD,2023-07-28 14:20:44,15.08837317,9.56e-05,53.216,331.4972,57.1942,302.9142,1.7734e-05,-5e-08,0.0,0 STARLINK-5164,1 54178U 22141X   23209.59773164 -.00000005  00000-0  17734-4 0  9995,2 54178  53.2160 331.4972 0000956  57.1942 302.9142 15.08837317 41673,6917.889,95.438,540.415,539.092,0.0
54178.0,STARLINK-5164,PAYLOAD,2023-07-29 01:28:25,15.08843955,0.0001002,53.2164,329.4157,96.3782,263.7324,-5.4579e-05,-1.156e-05,0.0,0 STARLINK-5164,1 54178U 22141X   23210.06140847 -.00001156  00000-0 -54579-4 0  9992,2 54178  53.2164 329.4157 0001002  96.3782 263.7324 15.08843955 41748,6917.868,95.437,540.426,539.04,0.0
54178.0,STARLINK-5164,PAYLOAD,2023-07-30 10:51:31,15.08837196,9.73e-05,53.2182,323.1731,72.3689,287.7409,0.00011394,1.526e-05,0.0,0 STARLINK-5164,1 54178U 22141X   23211.45245180  .00001526  00000-0  11394-3 0  9998,2 54178  53.2182 323.1731 0000973  72.3689 287.7409 15.08837196 41956,6917.889,95.438,540.427,539.081,0.0
54178.0,STARLINK-5164,PAYLOAD,2023-07-30 17:13:03,15.08844491,9.24e-05,53.2183,321.9806,102.6362,257.4733,0.00010369,1.363e-05,0.0,0 STARLINK-5164,1 54178U 22141X   23211.71740646  .00001363  00000-0  10369-3 0  9994,2 54178  53.2183 321.9806 0000924 102.6362 257.4733 15.08844491 41991,6917.867,95.437,540.371,539.092,0.0
54178.0,STARLINK-5164,PAYLOAD,2023-08-01 10:33:06,15.08834328,0.0001055,53.219,314.2526,101.7879,258.3231,2.2632e-05,7.2e-07,0.0,0 STARLINK-5164,1 54178U 22141X   23213.43965386  .00000072  00000-0  22632-4 0  9998,2 54178  53.2190 314.2526 0001055 101.7879 258.3231 15.08834328 42253,6917.898,95.438,540.493,539.033,0.0
54178.0,STARLINK-5164,PAYLOAD,2023-08-02 13:34:39,15.08841519,9.87e-05,53.2184,309.1978,98.103,262.0075,6.3581e-05,7.24e-06,0.0,0 STARLINK-5164,1 54178U 22141X   23214.56572996  .00000724  00000-0  63581-4 0  9996,2 54178  53.2184 309.1978 0000987  98.1030 262.0075 15.08841519 42428,6917.876,95.437,540.424,539.058,0.0
54178.0,STARLINK-5164,PAYLOAD,2023-08-04 10:05:27,15.08835529,9.26e-05,53.2177,300.8701,85.5487,274.5611,-3.8579e-06,-3.49e-06,0.0,0 STARLINK-5164,1 54178U 22141X   23216.42045922 -.00000349  00000-0 -38579-5 0  9992,2 54178  53.2177 300.8701 0000926  85.5487 274.5611 15.08835529 42700,6917.894,95.438,540.4,539.118,0.0
54178.0,STARLINK-5164,PAYLOAD,2023-08-04 13:16:13,15.08844677,0.0001183,53.2172,300.2746,93.3983,266.7144,-8.5379e-05,-1.647e-05,0.0,0 STARLINK-5164,1 54178U 22141X   23216.55293532 -.00001647  00000-0 -85379-4 0  9999,2 54178  53.2172 300.2746 0001183  93.3983 266.7144 15.08844677 42722,6917.866,95.437,540.549,538.913,0.0
54178.0,STARLINK-5164,PAYLOAD,2023-08-05 13:06:59,15.08858303,0.0001145,53.2175,295.8152,80.2154,279.8967,0.00019171,2.766e-05,0.0,0 STARLINK-5164,1 54178U 22141X   23217.54652052  .00002766  00000-0  19171-3 0  9992,2 54178  53.2175 295.8152 0001145  80.2154 279.8967 15.08858303 42873,6917.824,95.436,540.482,538.897,0.0
54178.0,STARLINK-5164,PAYLOAD,2023-08-05 22:39:18,15.08848893,0.0001096,53.218,294.0297,85.8573,274.2545,8.8483e-05,1.121e-05,0.0,0 STARLINK-5164,1 54178U 22141X   23217.94396568  .00001121  00000-0  88483-4 0  9990,2 54178  53.2180 294.0297 0001096  85.8573 274.2545 15.08848893 42932,6917.853,95.437,540.476,538.96,0.0
54178.0,STARLINK-5164,PAYLOAD,2023-08-06 11:22:24,15.08834712,0.0001294,53.2165,291.6503,98.515,261.5989,5.8084e-05,6.37e-06,0.0,0 STARLINK-5164,1 54178U 22141X   23218.47389887  .00000637  00000-0  58084-4 0  9990,2 54178  53.2165 291.6503 0001294  98.5150 261.5989 15.08834712 43016,6917.897,95.438,540.657,538.866,0.0
54178.0,STARLINK-5164,PAYLOAD,2023-08-07 11:13:11,15.08845285,0.0001404,53.2172,287.1906,108.7166,251.3978,-4.7173e-05,-1.039e-05,0.0,0 STARLINK-5164,1 54178U 22141X   23219.46749594 -.00001039  00000-0 -47173-4 0  9991,2 54178  53.2172 287.1906 0001404 108.7166 251.3978 15.08845285 43163,6917.864,95.437,540.701,538.758,0.0
54178.0,STARLINK-5164,PAYLOAD,2023-08-09 02:57:50,15.08835775,0.0001175,53.217,279.7583,98.7508,261.3617,6.4664e-05,7.41e-06,0.0,0 STARLINK-5164,1 54178U 22141X   23221.12350297  .00000741  00000-0  64664-4 0  9996,2 54178  53.2170 279.7583 0001175  98.7508 261.3617 15.08835775 43414,6917.893,95.438,540.571,538.945,0.0
54178.0,STARLINK-5164,PAYLOAD,2023-08-10 04:24:00,15.08840123,0.0001159,53.2168,274.9998,106.3388,253.7731,3.7654e-05,3.11e-06,0.0,0 STARLINK-5164,1 54178U 22141X   23222.18334265  .00000311  00000-0  37654-4 0  9992,2 54178  53.2168 274.9998 0001159 106.3388 253.7731 15.08840123 43574,6917.88,95.438,540.547,538.943,0.0
